{
  "type": "FeatureCollection",
  "features": [
    {
      "type": "Feature",
      "properties": {
        "norad_id": 35834,
        "name": "COSMOS 2251 DEB",
        "group": "cosmos-2251-debris",
        "lat": -44.58600475193633,
        "lon": -62.460724701340574,
        "alt_km": 930.6610323015266,
        "timestamp": "2025-12-07T09:35:10.185892+00:00",
        "meta_object_name": "COSMOS 2251 DEB",
        "meta_object_id": "1993-036ATG",
        "meta_epoch": "2025-12-06T22:03:30.654720",
        "meta_mean_motion": 14.12970743,
        "meta_eccentricity": 0.01091532,
        "meta_inclination": 73.9306,
        "meta_ra_of_asc_node": 314.899,
        "meta_arg_of_pericenter": 116.4535,
        "meta_mean_anomaly": 274.7981,
        "meta_ephemeris_type": 0,
        "meta_classification_type": "U",
        "meta_norad_cat_id": 35834,
        "meta_element_set_no": 999,
        "meta_rev_at_epoch": 66181,
        "meta_bstar": 0.00031514021,
        "meta_mean_motion_dot": 5.97e-06,
        "meta_mean_motion_ddot": 0,
        "tle_line1": "1 35834U 93036ATG 25340.91910480  .00000597  00000+0  31514-3 0  9997",
        "tle_line2": "2 35834  73.9306 314.8990 0109153 116.4535 274.7981 14.12970743661819"
      },
      "geometry": {
        "type": "Point",
        "coordinates": [
          -62.460724701340574,
          -44.58600475193633
        ]
      }
    },
    {
      "type": "Feature",
      "properties": {
        "norad_id": 35835,
        "name": "COSMOS 2251 DEB",
        "group": "cosmos-2251-debris",
        "lat": 64.26445419427492,
        "lon": 61.064094926002504,
        "alt_km": 807.5090140388384,
        "timestamp": "2025-12-07T09:35:10.185902+00:00",
        "meta_object_name": "COSMOS 2251 DEB",
        "meta_object_id": "1993-036ATH",
        "meta_epoch": "2025-12-04T13:22:03.090144",
        "meta_mean_motion": 13.82821616,
        "meta_eccentricity": 0.0289764,
        "meta_inclination": 74.0638,
        "meta_ra_of_asc_node": 282.192,
        "meta_arg_of_pericenter": 65.7075,
        "meta_mean_anomaly": 297.4021,
        "meta_ephemeris_type": 0,
        "meta_classification_type": "U",
        "meta_norad_cat_id": 35835,
        "meta_element_set_no": 999,
        "meta_rev_at_epoch": 61586,
        "meta_bstar": 0.0025294,
        "meta_mean_motion_dot": 3.783e-05,
        "meta_mean_motion_ddot": 0,
        "tle_line1": "1 35835U 93036ATH 25338.55698021  .00003783  00000+0  25294-2 0  9996",
        "tle_line2": "2 35835  74.0638 282.1920 0289764  65.7075 297.4021 13.82821616615863"
      },
      "geometry": {
        "type": "Point",
        "coordinates": [
          61.064094926002504,
          64.26445419427492
        ]
      }
    },
    {
      "type": "Feature",
      "properties": {
        "norad_id": 35836,
        "name": "COSMOS 2251 DEB",
        "group": "cosmos-2251-debris",
        "lat": 68.38315840143626,
        "lon": -130.42523748398045,
        "alt_km": 668.4871481923428,
        "timestamp": "2025-12-07T09:35:10.185912+00:00",
        "meta_object_name": "COSMOS 2251 DEB",
        "meta_object_id": "1993-036ATJ",
        "meta_epoch": "2025-12-06T20:11:03.427296",
        "meta_mean_motion": 14.70778906,
        "meta_eccentricity": 0.0024736,
        "meta_inclination": 74.0316,
        "meta_ra_of_asc_node": 184.3898,
        "meta_arg_of_pericenter": 243.6884,
        "meta_mean_anomaly": 116.1746,
        "meta_ephemeris_type": 0,
        "meta_classification_type": "U",
        "meta_norad_cat_id": 35836,
        "meta_element_set_no": 999,
        "meta_rev_at_epoch": 63433,
        "meta_bstar": 0.0029879629,
        "meta_mean_motion_dot": 0.00018345,
        "meta_mean_motion_ddot": 0,
        "tle_line1": "1 35836U 93036ATJ 25340.84101189  .00018345  00000+0  29880-2 0  9991",
        "tle_line2": "2 35836  74.0316 184.3898 0024736 243.6884 116.1746 14.70778906634330"
      },
      "geometry": {
        "type": "Point",
        "coordinates": [
          -130.42523748398045,
          68.38315840143626
        ]
      }
    },
    {
      "type": "Feature",
      "properties": {
        "norad_id": 35837,
        "name": "COSMOS 2251 DEB",
        "group": "cosmos-2251-debris",
        "lat": -73.48361377389129,
        "lon": 116.70163499169097,
        "alt_km": 1218.9184258251207,
        "timestamp": "2025-12-07T09:35:10.185922+00:00",
        "meta_object_name": "COSMOS 2251 DEB",
        "meta_object_id": "1993-036ATK",
        "meta_epoch": "2025-12-06T00:57:00.155232",
        "meta_mean_motion": 13.63407425,
        "meta_eccentricity": 0.04220745,
        "meta_inclination": 73.7215,
        "meta_ra_of_asc_node": 218.7719,
        "meta_arg_of_pericenter": 140.6182,
        "meta_mean_anomaly": 290.7471,
        "meta_ephemeris_type": 0,
        "meta_classification_type": "U",
        "meta_norad_cat_id": 35837,
        "meta_element_set_no": 999,
        "meta_rev_at_epoch": 57885,
        "meta_bstar": 0.0028460972,
        "meta_mean_motion_dot": 4.083e-05,
        "meta_mean_motion_ddot": 0,
        "tle_line1": "1 35837U 93036ATK 25340.03958513  .00004083  00000+0  28461-2 0  9992",
        "tle_line2": "2 35837  73.7215 218.7719 0422074 140.6182 290.7471 13.63407425578857"
      },
      "geometry": {
        "type": "Point",
        "coordinates": [
          116.70163499169097,
          -73.48361377389129
        ]
      }
    },
    {
      "type": "Feature",
      "properties": {
        "norad_id": 35839,
        "name": "COSMOS 2251 DEB",
        "group": "cosmos-2251-debris",
        "lat": -62.12623475843657,
        "lon": -57.21442556262244,
        "alt_km": 429.08545499453794,
        "timestamp": "2025-12-07T09:35:10.185932+00:00",
        "meta_object_name": "COSMOS 2251 DEB",
        "meta_object_id": "1993-036ATM",
        "meta_epoch": "2025-12-04T16:40:31.810368",
        "meta_mean_motion": 15.46007318,
        "meta_eccentricity": 0.00035851,
        "meta_inclination": 74.2143,
        "meta_ra_of_asc_node": 340.9603,
        "meta_arg_of_pericenter": 348.8276,
        "meta_mean_anomaly": 11.2856,
        "meta_ephemeris_type": 0,
        "meta_classification_type": "U",
        "meta_norad_cat_id": 35839,
        "meta_element_set_no": 999,
        "meta_rev_at_epoch": 88443,
        "meta_bstar": 0.0054614209,
        "meta_mean_motion_dot": 0.00276351,
        "meta_mean_motion_ddot": 0,
        "tle_line1": "1 35839U 93036ATM 25338.69481262  .00276351  00000+0  54614-2 0  9993",
        "tle_line2": "2 35839  74.2143 340.9603 0003585 348.8276  11.2856 15.46007318884430"
      },
      "geometry": {
        "type": "Point",
        "coordinates": [
          -57.21442556262244,
          -62.12623475843657
        ]
      }
    },
    {
      "type": "Feature",
      "properties": {
        "norad_id": 35840,
        "name": "COSMOS 2251 DEB",
        "group": "cosmos-2251-debris",
        "lat": 70.70968513443053,
        "lon": -136.47696925064338,
        "alt_km": 676.4500626060872,
        "timestamp": "2025-12-07T09:35:10.185942+00:00",
        "meta_object_name": "COSMOS 2251 DEB",
        "meta_object_id": "1993-036ATN",
        "meta_epoch": "2025-12-06T06:30:23.923008",
        "meta_mean_motion": 14.37729303,
        "meta_eccentricity": 0.01161221,
        "meta_inclination": 73.9295,
        "meta_ra_of_asc_node": 170.1667,
        "meta_arg_of_pericenter": 74.235,
        "meta_mean_anomaly": 287.1572,
        "meta_ephemeris_type": 0,
        "meta_classification_type": "U",
        "meta_norad_cat_id": 35840,
        "meta_element_set_no": 999,
        "meta_rev_at_epoch": 85198,
        "meta_bstar": 0.0028240718,
        "meta_mean_motion_dot": 9.169e-05,
        "meta_mean_motion_ddot": 0,
        "tle_line1": "1 35840U 93036ATN 25340.27111022  .00009169  00000+0  28241-2 0  9994",
        "tle_line2": "2 35840  73.9295 170.1667 0116122  74.2350 287.1572 14.37729303851981"
      },
      "geometry": {
        "type": "Point",
        "coordinates": [
          -136.47696925064338,
          70.70968513443053
        ]
      }
    },
    {
      "type": "Feature",
      "properties": {
        "norad_id": 35883,
        "name": "COSMOS 2251 DEB",
        "group": "cosmos-2251-debris",
        "lat": -12.225210676361012,
        "lon": -96.3628745585764,
        "alt_km": 670.8511915863846,
        "timestamp": "2025-12-07T09:35:10.185952+00:00",
        "meta_object_name": "COSMOS 2251 DEB",
        "meta_object_id": "1993-036ATW",
        "meta_epoch": "2025-11-29T02:53:29.744160",
        "meta_mean_motion": 14.50541303,
        "meta_eccentricity": 0.00841977,
        "meta_inclination": 74.0237,
        "meta_ra_of_asc_node": 95.6459,
        "meta_arg_of_pericenter": 227.8885,
        "meta_mean_anomaly": 309.997,
        "meta_ephemeris_type": 0,
        "meta_classification_type": "U",
        "meta_norad_cat_id": 35883,
        "meta_element_set_no": 999,
        "meta_rev_at_epoch": 62188,
        "meta_bstar": 0.00041574036,
        "meta_mean_motion_dot": 1.674e-05,
        "meta_mean_motion_ddot": 0,
        "tle_line1": "1 35883U 93036ATW 25333.12048315  .00001674  00000+0  41574-3 0  9999",
        "tle_line2": "2 35883  74.0237  95.6459 0084197 227.8885 309.9970 14.50541303621887"
      },
      "geometry": {
        "type": "Point",
        "coordinates": [
          -96.3628745585764,
          -12.225210676361012
        ]
      }
    }
  ]
}